start=new Date('2022-12-10T00:00:00.000Z').valueOf();
sats=[{"ECCENTRICITY":"0.00009160","CLASSIFICATION_TYPE":"U","EPHEMERIS_TYPE":"0","TIME_SYSTEM":"UTC","PERIOD":"95.594","SITE":"AFETR","GP_ID":"219847233","SEMIMAJOR_AXIS":"6925.444","TLE_LINE1":"1 47665U 21012AX  22343.47201540 -.00005161  00000-0 -32813-3 0  9996","EPOCH":"2022-12-09T11:19:42.130560","APOAPSIS":"547.943","FILE":"3685362","RCS_SIZE":"LARGE","TLE_LINE2":"2 47665  53.0538 331.8263 0000916  54.1775 305.9299 15.06368980101022","BSTAR":"-0.00032813000000","LAUNCH_DATE":"2021-02-16","MEAN_ANOMALY":"305.9299","MEAN_MOTION_DDOT":"0.0000000000000","RA_OF_ASC_NODE":"331.8263","NORAD_CAT_ID":"47665","OBJECT_TYPE":"PAYLOAD","OBJECT_NAME":"STARLINK-2056","MEAN_MOTION_DOT":"-0.00005161","ARG_OF_PERICENTER":"54.1775","DECAY_DATE":null,"COUNTRY_CODE":"US","CENTER_NAME":"EARTH","MEAN_ELEMENT_THEORY":"SGP4","MEAN_MOTION":"15.06368980","ELEMENT_SET_NO":"999","PERIAPSIS":"546.674","REV_AT_EPOCH":"10102","OBJECT_ID":"2021-012AX","INCLINATION":"53.0538","REF_FRAME":"TEME"},{"MEAN_MOTION_DOT":"0.00001473","ARG_OF_PERICENTER":"51.5181","DECAY_DATE":null,"MEAN_ELEMENT_THEORY":"SGP4","CENTER_NAME":"EARTH","COUNTRY_CODE":"US","MEAN_MOTION":"15.06392966","ELEMENT_SET_NO":"999","OBJECT_TYPE":"PAYLOAD","NORAD_CAT_ID":"47666","MEAN_MOTION_DDOT":"0.0000000000000","RA_OF_ASC_NODE":"332.1351","OBJECT_NAME":"STARLINK-2057","REF_FRAME":"TEME","INCLINATION":"53.0551","PERIAPSIS":"546.146","REV_AT_EPOCH":"10102","OBJECT_ID":"2021-012AY","SITE":"AFETR","GP_ID":"219847236","SEMIMAJOR_AXIS":"6925.370","EPHEMERIS_TYPE":"0","CLASSIFICATION_TYPE":"U","ECCENTRICITY":"0.00015720","TIME_SYSTEM":"UTC","PERIOD":"95.593","MEAN_ANOMALY":"308.5949","APOAPSIS":"548.324","TLE_LINE1":"1 47666U 21012AY  22343.46835300  .00001473  00000-0  11776-3 0  9998","EPOCH":"2022-12-09T11:14:25.699200","RCS_SIZE":"LARGE","FILE":"3685362","TLE_LINE2":"2 47666  53.0551 332.1351 0001572  51.5181 308.5949 15.06392966101023","BSTAR":"0.00011776000000","LAUNCH_DATE":"2021-02-16"},{"NORAD_CAT_ID":"47667","OBJECT_TYPE":"PAYLOAD","MEAN_MOTION_DDOT":"0.0000000000000","RA_OF_ASC_NODE":"356.2444","OBJECT_NAME":"STARLINK-2058","MEAN_MOTION_DOT":"-0.00007004","ARG_OF_PERICENTER":"35.8523","DECAY_DATE":null,"MEAN_ELEMENT_THEORY":"SGP4","CENTER_NAME":"EARTH","COUNTRY_CODE":"US","ELEMENT_SET_NO":"999","MEAN_MOTION":"15.06418864","PERIAPSIS":"545.575","REV_AT_EPOCH":"10069","OBJECT_ID":"2021-012AZ","REF_FRAME":"TEME","INCLINATION":"53.0573","EPHEMERIS_TYPE":"0","ECCENTRICITY":"0.00022830","CLASSIFICATION_TYPE":"U","TIME_SYSTEM":"UTC","PERIOD":"95.591","SITE":"AFETR","SEMIMAJOR_AXIS":"6925.291","GP_ID":"219847235","APOAPSIS":"548.737","TLE_LINE1":"1 47667U 21012AZ  22343.58949905 -.00007004  00000-0 -45150-3 0  9990","EPOCH":"2022-12-09T14:08:52.717920","RCS_SIZE":"LARGE","FILE":"3685362","BSTAR":"-0.00045150000000","TLE_LINE2":"2 47667  53.0573 356.2444 0002283  35.8523 324.2618 15.06418864100699","LAUNCH_DATE":"2021-02-16","MEAN_ANOMALY":"324.2618"},{"LAUNCH_DATE":"2021-02-16","TLE_LINE2":"2 47668  53.0549 337.2316 0000594  16.8498 343.2511 15.06469566101467","BSTAR":"0.00203330000000","RCS_SIZE":"LARGE","FILE":"3685263","APOAPSIS":"547.412","TLE_LINE1":"1 47668U 21012BA  22343.36646438  .00030192  00000-0  20333-2 0  9999","EPOCH":"2022-12-09T08:47:42.522432","MEAN_ANOMALY":"343.2511","PERIOD":"95.588","TIME_SYSTEM":"UTC","EPHEMERIS_TYPE":"0","ECCENTRICITY":"0.00005940","CLASSIFICATION_TYPE":"U","SEMIMAJOR_AXIS":"6925.135","GP_ID":"219841435","SITE":"AFETR","OBJECT_ID":"2021-012BA","REV_AT_EPOCH":"10146","PERIAPSIS":"546.589","REF_FRAME":"TEME","INCLINATION":"53.0549","OBJECT_NAME":"STARLINK-2059","NORAD_CAT_ID":"47668","OBJECT_TYPE":"PAYLOAD","RA_OF_ASC_NODE":"337.2316","MEAN_MOTION_DDOT":"0.0000000000000","ELEMENT_SET_NO":"999","MEAN_MOTION":"15.06469566","MEAN_ELEMENT_THEORY":"SGP4","CENTER_NAME":"EARTH","COUNTRY_CODE":"US","ARG_OF_PERICENTER":"16.8498","DECAY_DATE":null,"MEAN_MOTION_DOT":"0.00030192"},{"OBJECT_ID":"2021-012BB","PERIAPSIS":"514.766","REV_AT_EPOCH":"10255","REF_FRAME":"TEME","INCLINATION":"53.0512","OBJECT_NAME":"STARLINK-2060","NORAD_CAT_ID":"47669","OBJECT_TYPE":"PAYLOAD","RA_OF_ASC_NODE":"256.1641","MEAN_MOTION_DDOT":"0.0000000000000","MEAN_ELEMENT_THEORY":"SGP4","CENTER_NAME":"EARTH","COUNTRY_CODE":"US","MEAN_MOTION":"15.15927261","ELEMENT_SET_NO":"999","MEAN_MOTION_DOT":"0.00041932","DECAY_DATE":null,"ARG_OF_PERICENTER":"89.4073","TLE_LINE2":"2 47669  53.0512 256.1641 0004932  89.4073 270.7485 15.15927261102559","BSTAR":"0.00216460000000","LAUNCH_DATE":"2021-02-16","EPOCH":"2022-12-09T04:02:20.050368","TLE_LINE1":"1 47669U 21012BB  22343.16828762  .00041932  00000-0  21646-2 0  9992","APOAPSIS":"521.568","RCS_SIZE":"LARGE","FILE":"3685263","MEAN_ANOMALY":"270.7485","PERIOD":"94.991","EPHEMERIS_TYPE":"0","ECCENTRICITY":"0.00049320","CLASSIFICATION_TYPE":"U","TIME_SYSTEM":"UTC","GP_ID":"219841185","SEMIMAJOR_AXIS":"6896.302","SITE":"AFETR"},{"LAUNCH_DATE":"2021-02-16","BSTAR":"0.00031898000000","TLE_LINE2":"2 47670  53.0545 337.1720 0001744  55.0030 305.1122 15.06408576101457","RCS_SIZE":"LARGE","FILE":"3685263","EPOCH":"2022-12-09T09:08:58.035264","TLE_LINE1":"1 47670U 21012BC  22343.38122726  .00004474  00000-0  31898-3 0  9996","APOAPSIS":"548.395","MEAN_ANOMALY":"305.1122","PERIOD":"95.592","TIME_SYSTEM":"UTC","EPHEMERIS_TYPE":"0","CLASSIFICATION_TYPE":"U","ECCENTRICITY":"0.00017440","GP_ID":"219839933","SEMIMAJOR_AXIS":"6925.322","SITE":"AFETR","OBJECT_ID":"2021-012BC","REV_AT_EPOCH":"10145","PERIAPSIS":"545.979","REF_FRAME":"TEME","INCLINATION":"53.0545","OBJECT_NAME":"STARLINK-2062","OBJECT_TYPE":"PAYLOAD","NORAD_CAT_ID":"47670","MEAN_MOTION_DDOT":"0.0000000000000","RA_OF_ASC_NODE":"337.1720","ELEMENT_SET_NO":"999","MEAN_MOTION":"15.06408576","MEAN_ELEMENT_THEORY":"SGP4","COUNTRY_CODE":"US","CENTER_NAME":"EARTH","ARG_OF_PERICENTER":"55.0030","DECAY_DATE":null,"MEAN_MOTION_DOT":"0.00004474"},{"PERIOD":"95.595","TIME_SYSTEM":"UTC","CLASSIFICATION_TYPE":"U","ECCENTRICITY":"0.00012650","EPHEMERIS_TYPE":"0","GP_ID":"219840684","SEMIMAJOR_AXIS":"6925.477","SITE":"AFETR","LAUNCH_DATE":"2021-02-16","TLE_LINE2":"2 47671  53.0575 337.5421 0001265 330.7486  29.3432 15.06357956101453","BSTAR":"-0.00066951000000","FILE":"3685263","RCS_SIZE":"LARGE","TLE_LINE1":"1 47671U 21012BD  22343.29648109 -.00010228  00000-0 -66951-3 0  9999","EPOCH":"2022-12-09T07:06:55.966176","APOAPSIS":"548.218","MEAN_ANOMALY":"29.3432","OBJECT_NAME":"STARLINK-2064","MEAN_MOTION_DDOT":"0.0000000000000","RA_OF_ASC_NODE":"337.5421","NORAD_CAT_ID":"47671","OBJECT_TYPE":"PAYLOAD","ELEMENT_SET_NO":"999","MEAN_MOTION":"15.06357956","CENTER_NAME":"EARTH","COUNTRY_CODE":"US","MEAN_ELEMENT_THEORY":"SGP4","ARG_OF_PERICENTER":"330.7486","DECAY_DATE":null,"MEAN_MOTION_DOT":"-0.00010228","OBJECT_ID":"2021-012BD","REV_AT_EPOCH":"10145","PERIAPSIS":"546.466","INCLINATION":"53.0575","REF_FRAME":"TEME"},{"INCLINATION":"53.0557","REF_FRAME":"TEME","OBJECT_ID":"2021-012BE","REV_AT_EPOCH":"10111","PERIAPSIS":"546.890","MEAN_MOTION":"15.06387304","ELEMENT_SET_NO":"999","COUNTRY_CODE":"US","CENTER_NAME":"EARTH","MEAN_ELEMENT_THEORY":"SGP4","ARG_OF_PERICENTER":"112.8527","DECAY_DATE":null,"MEAN_MOTION_DOT":"0.00000123","OBJECT_NAME":"STARLINK-2065","MEAN_MOTION_DDOT":"0.0000000000000","RA_OF_ASC_NODE":"326.1649","OBJECT_TYPE":"PAYLOAD","NORAD_CAT_ID":"47672","MEAN_ANOMALY":"247.2517","LAUNCH_DATE":"2021-02-16","BSTAR":"0.00002713400000","TLE_LINE2":"2 47672  53.0557 326.1649 0000524 112.8527 247.2517 15.06387304101110","FILE":"3685418","RCS_SIZE":"LARGE","TLE_LINE1":"1 47672U 21012BE  22343.60699314  .00000123  00000-0  27134-4 0  9991","APOAPSIS":"547.615","EPOCH":"2022-12-09T14:34:04.207296","GP_ID":"219848239","SEMIMAJOR_AXIS":"6925.387","SITE":"AFETR","PERIOD":"95.593","TIME_SYSTEM":"UTC","ECCENTRICITY":"0.00005240","CLASSIFICATION_TYPE":"U","EPHEMERIS_TYPE":"0"},{"MEAN_ANOMALY":"307.5726","BSTAR":"0.00037302000000","TLE_LINE2":"2 47673  53.0536 337.1623 0001139  52.5367 307.5726 15.06409388101453","LAUNCH_DATE":"2021-02-16","EPOCH":"2022-12-09T09:14:16.601568","TLE_LINE1":"1 47673U 21012BF  22343.38491437  .00005280  00000-0  37302-3 0  9999","APOAPSIS":"547.974","RCS_SIZE":"LARGE","FILE":"3685263","GP_ID":"219841686","SEMIMAJOR_AXIS":"6925.320","SITE":"AFETR","PERIOD":"95.592","EPHEMERIS_TYPE":"0","CLASSIFICATION_TYPE":"U","ECCENTRICITY":"0.00011390","TIME_SYSTEM":"UTC","REF_FRAME":"TEME","INCLINATION":"53.0536","OBJECT_ID":"2021-012BF","PERIAPSIS":"546.396","REV_AT_EPOCH":"10145","MEAN_ELEMENT_THEORY":"SGP4","COUNTRY_CODE":"US","CENTER_NAME":"EARTH","MEAN_MOTION":"15.06409388","ELEMENT_SET_NO":"999","MEAN_MOTION_DOT":"0.00005280","ARG_OF_PERICENTER":"52.5367","DECAY_DATE":null,"OBJECT_NAME":"STARLINK-2066","NORAD_CAT_ID":"47673","OBJECT_TYPE":"PAYLOAD","RA_OF_ASC_NODE":"337.1623","MEAN_MOTION_DDOT":"0.0000000000000"},{"MEAN_MOTION_DOT":"-0.00011195","DECAY_DATE":null,"ARG_OF_PERICENTER":"23.8940","CENTER_NAME":"EARTH","COUNTRY_CODE":"US","MEAN_ELEMENT_THEORY":"SGP4","ELEMENT_SET_NO":"999","MEAN_MOTION":"15.06383806","RA_OF_ASC_NODE":"335.8988","MEAN_MOTION_DDOT":"0.0000000000000","NORAD_CAT_ID":"47674","OBJECT_TYPE":"PAYLOAD","OBJECT_NAME":"STARLINK-2067","INCLINATION":"53.0554","REF_FRAME":"TEME","PERIAPSIS":"545.300","REV_AT_EPOCH":"10098","OBJECT_ID":"2021-012BG","SITE":"AFETR","SEMIMAJOR_AXIS":"6925.398","GP_ID":"219848252","CLASSIFICATION_TYPE":"U","ECCENTRICITY":"0.00028350","EPHEMERIS_TYPE":"0","TIME_SYSTEM":"UTC","PERIOD":"95.593","MEAN_ANOMALY":"336.2180","APOAPSIS":"549.227","TLE_LINE1":"1 47674U 21012BG  22343.66412691 -.00011195  00000-0 -73410-3 0  9990","EPOCH":"2022-12-09T15:56:20.565024","FILE":"3685418","RCS_SIZE":"LARGE","BSTAR":"-0.00073410000000","TLE_LINE2":"2 47674  53.0554 335.8988 0002835  23.8940 336.2180 15.06383806100981","LAUNCH_DATE":"2021-02-16"}];
